STARLINK-35943          
1 66927U 25286C   25354.16667823 -.01413089  00000+0 -91167-2 0  9994
2 66927  53.1563  13.1350 0001179  79.3333  43.3928 15.78171789  3189
STARLINK-35944          
1 66928U 25286D   25354.16667823 -.01382194  00000+0 -88784-2 0  9998
2 66928  53.1560  13.1434 0000958  89.5276  29.0316 15.78209651  3185
STARLINK-36169          
1 66929U 25286E   25354.16667823 -.01413612  00000+0 -91370-2 0  9994
2 66929  53.1562  13.1302 0001290  80.8706  44.0081 15.78130832  3184
STARLINK-36206          
1 66930U 25286F   25354.16667823 -.01412430  00000+0 -91400-2 0  9997
2 66930  53.1560  13.1258 0000880  97.5902  29.3359 15.78107033  3182
STARLINK-36130          
1 66931U 25286G   25354.16667823 -.01424784  00000+0 -92453-2 0  9992
2 66931  53.1559  13.1213 0001225  84.2495  44.8506 15.78067493  3187
STARLINK-36177          
1 66932U 25286H   25354.16667823 -.01434503  00000+0 -93338-2 0  9996
2 66932  53.1559  13.1166 0001202  76.0463  55.2035 15.78026820  3186
STARLINK-36157          
1 66933U 25286J   25354.16667823 -.01433549  00000+0 -93447-2 0  9997
2 66933  53.1560  13.1123 0001027  71.9910  61.3845 15.77986202  3183
STARLINK-36153          
1 66934U 25286K   25354.16667823 -.01454728  00000+0 -95115-2 0  9994
2 66934  53.1560  13.1077 0001317  72.8512  62.6526 15.77958663  3182
STARLINK-36127          
1 66935U 25286L   25354.16667823 -.01457849  00000+0 -95643-2 0  9998
2 66935  53.1560  13.1031 0001141  85.2966  52.4538 15.77892034  3188
STARLINK-36160          
1 66936U 25286M   25354.16667823 -.01455693  00000+0 -95624-2 0  9993
2 66936  53.1562  13.0992 0001106  71.5523  68.2646 15.77859656  3182
STARLINK-36165          
1 66937U 25286N   25354.16667823 -.01468047  00000+0 -96652-2 0  9993
2 66937  53.1557  13.0942 0001188  70.1002  71.7961 15.77834105  3180
STARLINK-36155          
1 66938U 25286P   25354.16667823 -.01470618  00000+0 -97000-2 0  9999
2 66938  53.1557  13.0895 0001023  77.4933  66.4884 15.77800343  3181
