CCSDS_OMM_VERS = 2.0
CREATION_DATE  = 
ORIGINATOR     = 

OBJECT_NAME    = STARLINK-35943
OBJECT_ID      = 2025-286C
CENTER_NAME    = EARTH
REF_FRAME      = TEME
TIME_SYSTEM    = UTC
MEAN_ELEMENT_THEORY = SGP/SGP4

EPOCH          = 2025-12-20T04:00:00.999072
MEAN_MOTION    = 15.78171789
ECCENTRICITY   = .0001179
INCLINATION    = 53.1563
RA_OF_ASC_NODE = 13.1350
ARG_OF_PERICENTER = 79.3333
MEAN_ANOMALY   = 43.3928

EPHEMERIS_TYPE = 0
CLASSIFICATION_TYPE = U
NORAD_CAT_ID   = 66927
ELEMENT_SET_NO = 999
REV_AT_EPOCH   = 318
BSTAR          = -.91167E-2
MEAN_MOTION_DOT = -.1413089E-1
MEAN_MOTION_DDOT = 0

CCSDS_OMM_VERS = 2.0
CREATION_DATE  = 
ORIGINATOR     = 

OBJECT_NAME    = STARLINK-35944
OBJECT_ID      = 2025-286D
CENTER_NAME    = EARTH
REF_FRAME      = TEME
TIME_SYSTEM    = UTC
MEAN_ELEMENT_THEORY = SGP/SGP4

EPOCH          = 2025-12-20T04:00:00.999072
MEAN_MOTION    = 15.78209651
ECCENTRICITY   = .0000958
INCLINATION    = 53.1560
RA_OF_ASC_NODE = 13.1434
ARG_OF_PERICENTER = 89.5276
MEAN_ANOMALY   = 29.0316

EPHEMERIS_TYPE = 0
CLASSIFICATION_TYPE = U
NORAD_CAT_ID   = 66928
ELEMENT_SET_NO = 999
REV_AT_EPOCH   = 318
BSTAR          = -.88784E-2
MEAN_MOTION_DOT = -.1382194E-1
MEAN_MOTION_DDOT = 0

CCSDS_OMM_VERS = 2.0
CREATION_DATE  = 
ORIGINATOR     = 

OBJECT_NAME    = STARLINK-36169
OBJECT_ID      = 2025-286E
CENTER_NAME    = EARTH
REF_FRAME      = TEME
TIME_SYSTEM    = UTC
MEAN_ELEMENT_THEORY = SGP/SGP4

EPOCH          = 2025-12-20T04:00:00.999072
MEAN_MOTION    = 15.78130832
ECCENTRICITY   = .000129
INCLINATION    = 53.1562
RA_OF_ASC_NODE = 13.1302
ARG_OF_PERICENTER = 80.8706
MEAN_ANOMALY   = 44.0081

EPHEMERIS_TYPE = 0
CLASSIFICATION_TYPE = U
NORAD_CAT_ID   = 66929
ELEMENT_SET_NO = 999
REV_AT_EPOCH   = 318
BSTAR          = -.9137E-2
MEAN_MOTION_DOT = -.1413612E-1
MEAN_MOTION_DDOT = 0

CCSDS_OMM_VERS = 2.0
CREATION_DATE  = 
ORIGINATOR     = 

OBJECT_NAME    = STARLINK-36206
OBJECT_ID      = 2025-286F
CENTER_NAME    = EARTH
REF_FRAME      = TEME
TIME_SYSTEM    = UTC
MEAN_ELEMENT_THEORY = SGP/SGP4

EPOCH          = 2025-12-20T04:00:00.999072
MEAN_MOTION    = 15.78107033
ECCENTRICITY   = .000088
INCLINATION    = 53.1560
RA_OF_ASC_NODE = 13.1258
ARG_OF_PERICENTER = 97.5902
MEAN_ANOMALY   = 29.3359

EPHEMERIS_TYPE = 0
CLASSIFICATION_TYPE = U
NORAD_CAT_ID   = 66930
ELEMENT_SET_NO = 999
REV_AT_EPOCH   = 318
BSTAR          = -.914E-2
MEAN_MOTION_DOT = -.141243E-1
MEAN_MOTION_DDOT = 0

CCSDS_OMM_VERS = 2.0
CREATION_DATE  = 
ORIGINATOR     = 

OBJECT_NAME    = STARLINK-36130
OBJECT_ID      = 2025-286G
CENTER_NAME    = EARTH
REF_FRAME      = TEME
TIME_SYSTEM    = UTC
MEAN_ELEMENT_THEORY = SGP/SGP4

EPOCH          = 2025-12-20T04:00:00.999072
MEAN_MOTION    = 15.78067493
ECCENTRICITY   = .0001225
INCLINATION    = 53.1559
RA_OF_ASC_NODE = 13.1213
ARG_OF_PERICENTER = 84.2495
MEAN_ANOMALY   = 44.8506

EPHEMERIS_TYPE = 0
CLASSIFICATION_TYPE = U
NORAD_CAT_ID   = 66931
ELEMENT_SET_NO = 999
REV_AT_EPOCH   = 318
BSTAR          = -.92453E-2
MEAN_MOTION_DOT = -.1424784E-1
MEAN_MOTION_DDOT = 0

CCSDS_OMM_VERS = 2.0
CREATION_DATE  = 
ORIGINATOR     = 

OBJECT_NAME    = STARLINK-36177
OBJECT_ID      = 2025-286H
CENTER_NAME    = EARTH
REF_FRAME      = TEME
TIME_SYSTEM    = UTC
MEAN_ELEMENT_THEORY = SGP/SGP4

EPOCH          = 2025-12-20T04:00:00.999072
MEAN_MOTION    = 15.78026820
ECCENTRICITY   = .0001202
INCLINATION    = 53.1559
RA_OF_ASC_NODE = 13.1166
ARG_OF_PERICENTER = 76.0463
MEAN_ANOMALY   = 55.2035

EPHEMERIS_TYPE = 0
CLASSIFICATION_TYPE = U
NORAD_CAT_ID   = 66932
ELEMENT_SET_NO = 999
REV_AT_EPOCH   = 318
BSTAR          = -.93338E-2
MEAN_MOTION_DOT = -.1434503E-1
MEAN_MOTION_DDOT = 0

CCSDS_OMM_VERS = 2.0
CREATION_DATE  = 
ORIGINATOR     = 

OBJECT_NAME    = STARLINK-36157
OBJECT_ID      = 2025-286J
CENTER_NAME    = EARTH
REF_FRAME      = TEME
TIME_SYSTEM    = UTC
MEAN_ELEMENT_THEORY = SGP/SGP4

EPOCH          = 2025-12-20T04:00:00.999072
MEAN_MOTION    = 15.77986202
ECCENTRICITY   = .0001027
INCLINATION    = 53.1560
RA_OF_ASC_NODE = 13.1123
ARG_OF_PERICENTER = 71.9910
MEAN_ANOMALY   = 61.3845

EPHEMERIS_TYPE = 0
CLASSIFICATION_TYPE = U
NORAD_CAT_ID   = 66933
ELEMENT_SET_NO = 999
REV_AT_EPOCH   = 318
BSTAR          = -.93447E-2
MEAN_MOTION_DOT = -.1433549E-1
MEAN_MOTION_DDOT = 0

CCSDS_OMM_VERS = 2.0
CREATION_DATE  = 
ORIGINATOR     = 

OBJECT_NAME    = STARLINK-36153
OBJECT_ID      = 2025-286K
CENTER_NAME    = EARTH
REF_FRAME      = TEME
TIME_SYSTEM    = UTC
MEAN_ELEMENT_THEORY = SGP/SGP4

EPOCH          = 2025-12-20T04:00:00.999072
MEAN_MOTION    = 15.77958663
ECCENTRICITY   = .0001317
INCLINATION    = 53.1560
RA_OF_ASC_NODE = 13.1077
ARG_OF_PERICENTER = 72.8512
MEAN_ANOMALY   = 62.6526

EPHEMERIS_TYPE = 0
CLASSIFICATION_TYPE = U
NORAD_CAT_ID   = 66934
ELEMENT_SET_NO = 999
REV_AT_EPOCH   = 318
BSTAR          = -.95115E-2
MEAN_MOTION_DOT = -.1454728E-1
MEAN_MOTION_DDOT = 0

CCSDS_OMM_VERS = 2.0
CREATION_DATE  = 
ORIGINATOR     = 

OBJECT_NAME    = STARLINK-36127
OBJECT_ID      = 2025-286L
CENTER_NAME    = EARTH
REF_FRAME      = TEME
TIME_SYSTEM    = UTC
MEAN_ELEMENT_THEORY = SGP/SGP4

EPOCH          = 2025-12-20T04:00:00.999072
MEAN_MOTION    = 15.77892034
ECCENTRICITY   = .0001141
INCLINATION    = 53.1560
RA_OF_ASC_NODE = 13.1031
ARG_OF_PERICENTER = 85.2966
MEAN_ANOMALY   = 52.4538

EPHEMERIS_TYPE = 0
CLASSIFICATION_TYPE = U
NORAD_CAT_ID   = 66935
ELEMENT_SET_NO = 999
REV_AT_EPOCH   = 318
BSTAR          = -.95643E-2
MEAN_MOTION_DOT = -.1457849E-1
MEAN_MOTION_DDOT = 0

CCSDS_OMM_VERS = 2.0
CREATION_DATE  = 
ORIGINATOR     = 

OBJECT_NAME    = STARLINK-36160
OBJECT_ID      = 2025-286M
CENTER_NAME    = EARTH
REF_FRAME      = TEME
TIME_SYSTEM    = UTC
MEAN_ELEMENT_THEORY = SGP/SGP4

EPOCH          = 2025-12-20T04:00:00.999072
MEAN_MOTION    = 15.77859656
ECCENTRICITY   = .0001106
INCLINATION    = 53.1562
RA_OF_ASC_NODE = 13.0992
ARG_OF_PERICENTER = 71.5523
MEAN_ANOMALY   = 68.2646

EPHEMERIS_TYPE = 0
CLASSIFICATION_TYPE = U
NORAD_CAT_ID   = 66936
ELEMENT_SET_NO = 999
REV_AT_EPOCH   = 318
BSTAR          = -.95624E-2
MEAN_MOTION_DOT = -.1455693E-1
MEAN_MOTION_DDOT = 0

CCSDS_OMM_VERS = 2.0
CREATION_DATE  = 
ORIGINATOR     = 

OBJECT_NAME    = STARLINK-36165
OBJECT_ID      = 2025-286N
CENTER_NAME    = EARTH
REF_FRAME      = TEME
TIME_SYSTEM    = UTC
MEAN_ELEMENT_THEORY = SGP/SGP4

EPOCH          = 2025-12-20T04:00:00.999072
MEAN_MOTION    = 15.77834105
ECCENTRICITY   = .0001188
INCLINATION    = 53.1557
RA_OF_ASC_NODE = 13.0942
ARG_OF_PERICENTER = 70.1002
MEAN_ANOMALY   = 71.7961

EPHEMERIS_TYPE = 0
CLASSIFICATION_TYPE = U
NORAD_CAT_ID   = 66937
ELEMENT_SET_NO = 999
REV_AT_EPOCH   = 318
BSTAR          = -.96652E-2
MEAN_MOTION_DOT = -.1468047E-1
MEAN_MOTION_DDOT = 0

CCSDS_OMM_VERS = 2.0
CREATION_DATE  = 
ORIGINATOR     = 

OBJECT_NAME    = STARLINK-36155
OBJECT_ID      = 2025-286P
CENTER_NAME    = EARTH
REF_FRAME      = TEME
TIME_SYSTEM    = UTC
MEAN_ELEMENT_THEORY = SGP/SGP4

EPOCH          = 2025-12-20T04:00:00.999072
MEAN_MOTION    = 15.77800343
ECCENTRICITY   = .0001023
INCLINATION    = 53.1557
RA_OF_ASC_NODE = 13.0895
ARG_OF_PERICENTER = 77.4933
MEAN_ANOMALY   = 66.4884

EPHEMERIS_TYPE = 0
CLASSIFICATION_TYPE = U
NORAD_CAT_ID   = 66938
ELEMENT_SET_NO = 999
REV_AT_EPOCH   = 318
BSTAR          = -.97E-2
MEAN_MOTION_DOT = -.1470618E-1
MEAN_MOTION_DDOT = 0

